ONEWEB-0706             
1 61611U 24188T   25287.87554931  .00000176  00000+0  46818-3 0  9997
2 61611  87.8754  85.1765 0002319  91.0890 269.0503 13.10376685 51258
ONEWEB-0707             
1 61612U 24188U   25287.88219234  .00000529  00000+0  14779-2 0  9995
2 61612  87.8767  85.1446 0002284  93.8539 266.2850 13.10377177 51194
ONEWEB-0708             
1 61613U 24188V   25287.67138909  .00000540  00000+0  15103-2 0  9997
2 61613  87.8759  85.2287 0002350  83.3369 276.8026 13.10370121 51148
